NORAD_CAT_ID,OBJECT_NAME,OBJECT_TYPE,EPOCH,MEAN_MOTION,ECCENTRICITY,INCLINATION,RA_OF_ASC_NODE,ARG_OF_PERICENTER,MEAN_ANOMALY,BSTAR,MEAN_MOTION_DOT,MEAN_MOTION_DDOT,TLE_LINE0,TLE_LINE1,TLE_LINE2,SEMIMAJOR_AXIS,PERIOD,APOGEE,PERIGEE,DECAYED
51895.0,STARLINK-3594,PAYLOAD,2023-05-31 15:46:41,15.08846921,0.0001081,53.2166,226.7985,89.5553,270.5563,9.1744e-05,1.173e-05,0.0,0 STARLINK-3594,1 51895U 22022AV  23151.65742410  .00001173  00000-0  91744-4 0  9998,2 51895  53.2166 226.7985 0001081  89.5553 270.5563 15.08846921 70310,6917.859,95.437,540.472,538.976,0.0
51895.0,STARLINK-3594,PAYLOAD,2023-05-31 22:08:14,15.0884091,0.0001023,53.2162,225.6086,80.4482,279.6626,6.0551e-05,6.76e-06,0.0,0 STARLINK-3594,1 51895U 22022AV  23151.92238875  .00000676  00000-0  60551-4 0  9992,2 51895  53.2162 225.6086 0001023  80.4482 279.6626 15.08840910 70359,6917.878,95.437,540.45,539.035,0.0
51895.0,STARLINK-3594,PAYLOAD,2023-05-31 23:43:37,15.08834735,0.0001026,53.216,225.3112,83.8791,276.2318,0.00014182,1.97e-05,0.0,0 STARLINK-3594,1 51895U 22022AV  23151.98862978  .00001970  00000-0  14182-3 0  9991,2 51895  53.2160 225.3112 0001026  83.8791 276.2318 15.08834735 70367,6917.896,95.438,540.471,539.052,0.0
51895.0,STARLINK-3594,PAYLOAD,2023-06-01 10:51:19,15.08839329,0.0001063,53.2163,223.2308,81.2588,278.8524,0.0001023,1.341e-05,0.0,0 STARLINK-3594,1 51895U 22022AV  23152.45231053  .00001341  00000-0  10230-3 0  9990,2 51895  53.2163 223.2308 0001063  81.2588 278.8524 15.08839329 70430,6917.882,95.438,540.483,539.012,0.0
51895.0,STARLINK-3594,PAYLOAD,2023-06-02 10:42:06,15.08840069,0.0001112,53.2164,218.7709,79.5169,280.5948,1.1105e-05,-1.11e-06,0.0,0 STARLINK-3594,1 51895U 22022AV  23153.44591376 -.00000111  00000-0  11105-4 0  9995,2 51895  53.2164 218.7709 0001112  79.5169 280.5948 15.08840069 70584,6917.88,95.438,540.514,538.976,0.0
51895.0,STARLINK-3594,PAYLOAD,2023-06-02 13:52:52,15.08844207,0.0001114,53.2162,218.176,76.6341,283.4775,4.2004e-05,3.81e-06,0.0,0 STARLINK-3594,1 51895U 22022AV  23153.57839064  .00000381  00000-0  42004-4 0  9998,2 51895  53.2162 218.1760 0001114  76.6341 283.4775 15.08844207 70606,6917.868,95.437,540.503,538.962,0.0
51895.0,STARLINK-3594,PAYLOAD,2023-06-02 21:49:48,15.08841572,0.0001008,53.2158,216.688,90.9722,269.1386,-2.3238e-05,-6.58e-06,0.0,0 STARLINK-3594,1 51895U 22022AV  23153.90959262 -.00000658  00000-0 -23238-4 0  9995,2 51895  53.2158 216.6880 0001008  90.9722 269.1386 15.08841572 70657,6917.876,95.437,540.438,539.043,0.0
51895.0,STARLINK-3594,PAYLOAD,2023-06-03 13:43:40,15.08838553,0.0001094,53.2158,213.7145,90.8093,269.3024,1.916e-05,1.7e-07,0.0,0 STARLINK-3594,1 51895U 22022AV  23154.57199477  .00000017  00000-0  19160-4 0  9999,2 51895  53.2158 213.7145 0001094  90.8093 269.3024 15.08838553 70751,6917.885,95.438,540.507,538.993,0.0
51895.0,STARLINK-3594,PAYLOAD,2023-06-04 10:23:40,15.08841889,0.0001065,53.2159,209.8485,96.2326,263.8787,0.00011401,1.527e-05,0.0,0 STARLINK-3594,1 51895U 22022AV  23155.43311020  .00001527  00000-0  11401-3 0  9991,2 51895  53.2159 209.8485 0001065  96.2326 263.8787 15.08841889 70887,6917.875,95.437,540.476,539.003,0.0
51895.0,STARLINK-3594,PAYLOAD,2023-06-05 03:52:55,15.08835057,0.0001057,53.2159,206.5775,95.94,264.1713,5.9998e-05,6.67e-06,0.0,0 STARLINK-3594,1 51895U 22022AV  23156.16175646  .00000667  00000-0  59998-4 0  9992,2 51895  53.2159 206.5775 0001057  95.9400 264.1713 15.08835057 70998,6917.895,95.438,540.492,539.029,0.0
51895.0,STARLINK-3594,PAYLOAD,2023-06-05 13:25:15,15.08829317,0.0001021,53.2161,204.7943,90.869,269.2419,-3.2685e-05,-8.08e-06,0.0,0 STARLINK-3594,1 51895U 22022AV  23156.55920504 -.00000808  00000-0 -32685-4 0  9999,2 51895  53.2161 204.7943 0001021  90.8690 269.2419 15.08829317 71053,6917.913,95.438,540.484,539.072,0.0
51895.0,STARLINK-3594,PAYLOAD,2023-06-06 08:29:52,15.0883664,0.0001029,53.216,201.2257,87.915,272.196,2.0049e-05,3.1e-07,0.0,0 STARLINK-3594,1 51895U 22022AV  23157.35408225  .00000031  00000-0  20049-4 0  9996,2 51895  53.2160 201.2257 0001029  87.9150 272.1960 15.08836640 71172,6917.891,95.438,540.468,539.044,0.0
51895.0,STARLINK-3594,PAYLOAD,2023-06-06 11:40:38,15.08842393,0.0001007,53.2161,200.631,85.6166,274.4941,-2.5851e-05,-6.99e-06,0.0,0 STARLINK-3594,1 51895U 22022AV  23157.48655995 -.00000699  00000-0 -25851-4 0  9996,2 51895  53.2161 200.6310 0001007  85.6166 274.4941 15.08842393 71192,6917.873,95.437,540.435,539.041,0.0
51895.0,STARLINK-3594,PAYLOAD,2023-06-07 11:31:25,15.088415,0.0001069,53.2162,196.1706,86.6253,273.4861,0.00020871,3.035e-05,0.0,0 STARLINK-3594,1 51895U 22022AV  23158.48015535  .00003035  00000-0  20871-3 0  9998,2 51895  53.2162 196.1706 0001069  86.6253 273.4861 15.08841500 71343,6917.876,95.437,540.48,539.001,0.0
51895.0,STARLINK-3594,PAYLOAD,2023-06-07 19:28:21,15.08839404,0.0001053,53.2162,194.6838,88.5607,271.5506,0.00014804,2.069e-05,0.0,0 STARLINK-3594,1 51895U 22022AV  23158.81135914  .00002069  00000-0  14804-3 0  9994,2 51895  53.2162 194.6838 0001053  88.5607 271.5506 15.08839404 71399,6917.882,95.438,540.476,539.019,0.0
51895.0,STARLINK-3594,PAYLOAD,2023-06-08 08:11:26,15.08839754,0.0001104,53.2163,192.305,89.4507,270.6611,5.8325e-05,6.41e-06,0.0,0 STARLINK-3594,1 51895U 22022AV  23159.34128201  .00000641  00000-0  58325-4 0  9995,2 51895  53.2163 192.3050 0001104  89.4507 270.6611 15.08839754 71471,6917.881,95.438,540.51,538.982,0.0
51895.0,STARLINK-3594,PAYLOAD,2023-06-08 11:22:13,15.08832685,0.0001069,53.216,191.7102,88.5535,271.5579,0.00017016,2.421e-05,0.0,0 STARLINK-3594,1 51895U 22022AV  23159.47376393  .00002421  00000-0  17016-3 0  9995,2 51895  53.2160 191.7102 0001069  88.5535 271.5579 15.08832685 71491,6917.903,95.438,540.507,539.028,0.0
51895.0,STARLINK-3594,PAYLOAD,2023-06-09 11:12:59,15.08842773,0.0001142,53.2159,187.2494,88.8919,271.2204,-4.5802e-06,-3.61e-06,0.0,0 STARLINK-3594,1 51895U 22022AV  23160.46736057 -.00000361  00000-0 -45802-5 0  9992,2 51895  53.2159 187.2494 0001142  88.8919 271.2204 15.08842773 71642,6917.872,95.437,540.527,538.947,0.0
51895.0,STARLINK-3594,PAYLOAD,2023-06-10 07:53:01,15.08836089,0.0001144,53.2157,183.3832,88.8279,271.2844,2.3036e-05,7.9e-07,0.0,0 STARLINK-3594,1 51895U 22022AV  23161.32848463  .00000079  00000-0  23036-4 0  9991,2 51895  53.2157 183.3832 0001144  88.8279 271.2844 15.08836089 71771,6917.892,95.438,540.549,538.966,0.0
51895.0,STARLINK-3594,PAYLOAD,2023-06-10 11:03:47,15.08836488,0.000115,53.2157,182.7884,88.5193,271.5931,2.4338e-05,1e-06,0.0,0 STARLINK-3594,1 51895U 22022AV  23161.46096467  .00000100  00000-0  24338-4 0  9996,2 51895  53.2157 182.7884 0001150  88.5193 271.5931 15.08836488 71795,6917.891,95.438,540.552,538.961,0.0
51895.0,STARLINK-3594,PAYLOAD,2023-06-11 10:54:34,15.08842234,0.0001136,53.2158,178.3282,84.1338,275.9783,7.7726e-05,9.49e-06,0.0,0 STARLINK-3594,1 51895U 22022AV  23162.45456028  .00000949  00000-0  77726-4 0  9999,2 51895  53.2158 178.3282 0001136  84.1338 275.9783 15.08842234 71942,6917.874,95.437,540.524,538.953,0.0
51895.0,STARLINK-3594,PAYLOAD,2023-06-12 07:34:34,15.08840534,0.0001143,53.2157,174.4625,82.2711,277.841,8.1102e-05,1.003e-05,0.0,0 STARLINK-3594,1 51895U 22022AV  23163.31568128  .00001003  00000-0  81102-4 0  9995,2 51895  53.2157 174.4625 0001143  82.2711 277.8410 15.08840534 72075,6917.879,95.438,540.534,538.953,0.0
51895.0,STARLINK-3594,PAYLOAD,2023-06-13 01:03:49,15.08838943,0.0001168,53.2157,171.1914,81.5767,278.5358,1.0284e-05,-1.24e-06,0.0,0 STARLINK-3594,1 51895U 22022AV  23164.04432491 -.00000124  00000-0  10284-4 0  9996,2 51895  53.2157 171.1914 0001168  81.5767 278.5358 15.08838943 72182,6917.884,95.438,540.557,538.941,0.0
51895.0,STARLINK-3594,PAYLOAD,2023-06-13 05:49:59,15.08838788,0.0001176,53.2159,170.2994,81.5902,278.5223,5.1805e-06,-2.05e-06,0.0,0 STARLINK-3594,1 51895U 22022AV  23164.24304490 -.00000205  00000-0  51805-5 0  9990,2 51895  53.2159 170.2994 0001176  81.5902 278.5223 15.08838788 72214,6917.884,95.438,540.563,538.936,0.0
51895.0,STARLINK-3594,PAYLOAD,2023-06-14 00:54:36,15.08836525,0.0001166,53.2159,166.7321,82.0516,278.0608,1.3441e-05,-7.4e-07,0.0,0 STARLINK-3594,1 51895U 22022AV  23165.03792675 -.00000074  00000-0  13441-4 0  9991,2 51895  53.2159 166.7321 0001166  82.0516 278.0608 15.08836525 72336,6917.891,95.438,540.563,538.949,0.0
51895.0,STARLINK-3594,PAYLOAD,2023-06-14 16:48:28,15.08837205,0.0001165,53.2159,163.7578,79.4802,280.6321,3.2864e-05,2.35e-06,0.0,0 STARLINK-3594,1 51895U 22022AV  23165.70032711  .00000235  00000-0  32864-4 0  9991,2 51895  53.2159 163.7578 0001165  79.4802 280.6321 15.08837205 72432,6917.889,95.438,540.56,538.948,0.0
51895.0,STARLINK-3594,PAYLOAD,2023-06-15 08:42:19,15.08836151,0.0001148,53.2161,160.7846,88.2104,271.9019,3.773e-05,3.13e-06,0.0,0 STARLINK-3594,1 51895U 22022AV  23166.36272902  .00000313  00000-0  37730-4 0  9996,2 51895  53.2161 160.7846 0001148  88.2104 271.9019 15.08836151 72531,6917.892,95.438,540.551,538.963,0.0
51895.0,STARLINK-3594,PAYLOAD,2023-06-15 23:00:47,15.08840136,0.0001148,53.2163,158.1082,86.9859,273.1265,6.218e-05,7.02e-06,0.0,0 STARLINK-3594,1 51895U 22022AV  23166.95888679  .00000702  00000-0  62180-4 0  9994,2 51895  53.2163 158.1082 0001148  86.9859 273.1265 15.08840136 72623,6917.88,95.438,540.539,538.951,0.0
51895.0,STARLINK-3594,PAYLOAD,2023-06-16 08:33:06,15.08844819,0.000117,53.2162,156.3238,87.1311,272.9815,9.6192e-05,1.244e-05,0.0,0 STARLINK-3594,1 51895U 22022AV  23167.35632275  .00001244  00000-0  96192-4 0  9990,2 51895  53.2162 156.3238 0001170  87.1311 272.9815 15.08844819 72682,6917.866,95.437,540.54,538.921,0.0
51895.0,STARLINK-3594,PAYLOAD,2023-06-16 16:30:02,15.08841454,0.0001195,53.2162,154.8373,86.6346,273.4783,7.2127e-05,8.6e-06,0.0,0 STARLINK-3594,1 51895U 22022AV  23167.68752514  .00000860  00000-0  72127-4 0  9990,2 51895  53.2162 154.8373 0001195  86.6346 273.4783 15.08841454 72732,6917.876,95.437,540.568,538.914,0.0
